*******************************************************************************
 Revised: Aug 11, 2015           Pluto Barycenter                             9
 
 ICRF/J2000.0 heliocentric ecliptic osculating elements (au, days, deg), DE433:

 EPOCH= 2457217.500000000 ! 2015-Jul-14 00:00 (TDB)
  EC= 2.543033082909471E-01 QR= 2.963702328762702E+01 IN= 1.736609481151430E+01
  OM= 1.102099981996057E+02 W = 1.142248569189779E+02 Tp=  2447885.610187903512
  A = 3.974407237841206E+01 AD= 4.985112146919710E+01 PR= 9.151809533192721E+04

 NOTE: 
  The Horizons output log may report using DE431 as the source of target or
  center data, but it is nevertheless using DE433 as an override if Pluto is
  involved. This is to maintain ephemeris consistency for the New Horizons 
  spacecraft encounter at Pluto.

 System GM (DE431)
 ----------------
  977.0  km^3/s^2

 Dynamical point:
 ---------------
 The location of the center-of-mass of the Pluto system. The point about which 
 Pluto and its satellites revolve. See 999 (or 134340) for Pluto planet center,
 901 for Charon, 902 for Nyx, 903 for Hydra, 904 for Kerberos, 905 for Styx.
*******************************************************************************
 
 
*******************************************************************************
Ephemeris / WWW_USER Wed Jun 17 12:26:38 2020 Pasadena, USA      / Horizons
*******************************************************************************
Target body name: Pluto Barycenter (9)            {source: de433}
Center body name: Solar System Barycenter (0)     {source: DE431mx}
Center-site name: BODY CENTER
*******************************************************************************
Start time      : A.D. 2000-Jun-05 00:00:00.0000 TDB
Stop  time      : A.D. 2040-May-26 00:00:00.0000 TDB
Step-size       : 14400 minutes
*******************************************************************************
Center geodetic : 0.00000000,0.00000000,0.0000000 {E-lon(deg),Lat(deg),Alt(km)}
Center cylindric: 0.00000000,0.00000000,0.0000000 {E-lon(deg),Dxy(km),Dz(km)}
Center radii    : (undefined)                                                  
Output units    : AU-D
Output type     : GEOMETRIC cartesian states
Output format   : 3 (position, velocity, LT, range, range-rate)
Reference frame : Ecliptic of J2000.0
*******************************************************************************
JDTDB
   X     Y     Z
   VX    VY    VZ
   LT    RG    RR
*******************************************************************************
$$SOE
2454340.500000000 = A.D. 2007-Aug-28 00:00:00.0000 TDB 
 X =-1.114304678278695E+00 Y =-3.109597192569109E+01 Z = 3.649781657365093E+00
 VX= 3.194392546190386E-03 VY=-6.975226662096161E-04 VZ=-8.493679154907200E-04
 LT= 1.809426710968753E-01 RG= 3.132925232216436E+01 RR= 4.797628457466505E-04
2454350.500000000 = A.D. 2007-Sep-07 00:00:00.0000 TDB 
 X =-1.082360220726623E+00 Y =-3.110293217164859E+01 Z = 3.641286221138847E+00
 VX= 3.194498443931968E-03 VY=-6.945266430474366E-04 VZ=-8.497191664474169E-04
 LT= 1.809703957725430E-01 RG= 3.133405270094885E+01 RR= 4.803127919722891E-04
2454360.500000000 = A.D. 2007-Sep-17 00:00:00.0000 TDB 
 X =-1.050414719801378E+00 Y =-3.110986246091456E+01 Z = 3.632787277301889E+00
 VX= 3.194601221276987E-03 VY=-6.915313286423364E-04 VZ=-8.500694376822036E-04
 LT= 1.809981521898059E-01 RG= 3.133885857562019E+01 RR= 4.808620231127382E-04
2454370.500000000 = A.D. 2007-Sep-27 00:00:00.0000 TDB 
 X =-1.018468206693358E+00 Y =-3.111676280059866E+01 Z = 3.624284835649974E+00
 VX= 3.194700880939583E-03 VY=-6.885367274060168E-04 VZ=-8.504187294862224E-04
 LT= 1.810259403073633E-01 RG= 3.134366993902737E+01 RR= 4.814105391354774E-04
2454380.500000000 = A.D. 2007-Oct-07 00:00:00.0000 TDB 
 X =-9.865207125658065E-01 Y =-3.112363319785461E+01 Z = 3.615778905975957E+00
 VX= 3.194797425636176E-03 VY=-6.855428437462477E-04 VZ=-8.507670421519289E-04
 LT= 1.810537600839126E-01 RG= 3.134848678401909E+01 RR= 4.819583400153143E-04
2454390.500000000 = A.D. 2007-Oct-17 00:00:00.0000 TDB 
 X =-9.545722685547934E-01 Y =-3.113047365988017E+01 Z = 3.607269498069742E+00
 VX= 3.194890858085143E-03 VY=-6.825496820624749E-04 VZ=-8.511143759744804E-04
 LT= 1.810816114781500E-01 RG= 3.135330910344379E+01 RR= 4.825054257298506E-04
2454400.500000000 = A.D. 2007-Oct-27 00:00:00.0000 TDB 
 X =-9.226229057691957E-01 Y =-3.113728419391708E+01 Z = 3.598756621718279E+00
 VX= 3.194981181006488E-03 VY=-6.795572467471967E-04 VZ=-8.514607312519630E-04
 LT= 1.811094944487704E-01 RG= 3.135813689014973E+01 RR= 4.830517962608071E-04
2454410.500000000 = A.D. 2007-Nov-06 00:00:00.0000 TDB 
 X =-8.906726552906857E-01 Y =-3.114406480725097E+01 Z = 3.590240286705525E+00
 VX= 3.195068397121174E-03 VY=-6.765655421881278E-04 VZ=-8.518061082831688E-04
 LT= 1.811374089544680E-01 RG= 3.136297013698502E+01 RR= 4.835974515964204E-04
2454420.500000000 = A.D. 2007-Nov-16 00:00:00.0000 TDB 
 X =-8.587215481737237E-01 Y =-3.115081550721129E+01 Z = 3.581720502812429E+00
 VX= 3.195152509150479E-03 VY=-6.735745727638030E-04 VZ=-8.521505073713601E-04
 LT= 1.811653549539362E-01 RG= 3.136780883679765E+01 RR= 4.841423917266329E-04
2454430.500000000 = A.D. 2007-Nov-26 00:00:00.0000 TDB 
 X =-8.267696154455569E-01 Y =-3.115753630117127E+01 Z = 3.573197279816899E+00
 VX= 3.195233519815636E-03 VY=-6.705843428453988E-04 VZ=-8.524939288201729E-04
 LT= 1.811933324058679E-01 RG= 3.137265298243551E+01 RR= 4.846866166453462E-04
2454440.500000000 = A.D. 2007-Dec-06 00:00:00.0000 TDB 
 X =-7.948168881062198E-01 Y =-3.116422719654776E+01 Z = 3.564670627493798E+00
 VX= 3.195311431838205E-03 VY=-6.675948567944216E-04 VZ=-8.528363729377599E-04
 LT= 1.812213412689557E-01 RG= 3.137750256674649E+01 RR= 4.852301263476041E-04
2454450.500000000 = A.D. 2007-Dec-16 00:00:00.0000 TDB 
 X =-7.628633971285274E-01 Y =-3.117088820080122E+01 Z = 3.556140555614881E+00
 VX= 3.195386247940385E-03 VY=-6.646061189618480E-04 VZ=-8.531778400347786E-04
 LT= 1.812493815018923E-01 RG= 3.138235758257840E+01 RR= 4.857729208289289E-04
2454460.500000000 = A.D. 2007-Dec-26 00:00:00.0000 TDB 
 X =-7.309091734580702E-01 Y =-3.117751932143554E+01 Z = 3.547607073948790E+00
 VX= 3.195457970845116E-03 VY=-6.616181336891692E-04 VZ=-8.535183304245289E-04
 LT= 1.812774530633697E-01 RG= 3.138721802277900E+01 RR= 4.863150000863090E-04
2454470.500000000 = A.D. 2008-Jan-05 00:00:00.0000 TDB 
 X =-6.989542480132034E-01 Y =-3.118412056599797E+01 Z = 3.539070192261024E+00
 VX= 3.195526603276426E-03 VY=-6.586309053066251E-04 VZ=-8.538578444236806E-04
 LT= 1.813055559120800E-01 RG= 3.139208388019603E+01 RR= 4.868563641163218E-04
2454480.500000000 = A.D. 2008-Jan-15 00:00:00.0000 TDB 
 X =-6.669986516850350E-01 Y =-3.119069194207903E+01 Z = 3.530529920313889E+00
 VX= 3.195592147959777E-03 VY=-6.556444381338677E-04 VZ=-8.541963823523390E-04
 LT= 1.813336900067150E-01 RG= 3.139695514767723E+01 RR= 4.873970129157510E-04
2454490.500000000 = A.D. 2008-Jan-25 00:00:00.0000 TDB 
 X =-6.350424153374108E-01 Y =-3.119723345731238E+01 Z = 3.521986267866471E+00
 VX= 3.195654607622293E-03 VY=-6.526587364802447E-04 VZ=-8.545339445331566E-04
 LT= 1.813618553059662E-01 RG= 3.140183181807024E+01 RR= 4.879369464819388E-04
2454500.500000000 = A.D. 2008-Feb-04 00:00:00.0000 TDB 
 X =-6.030855698068962E-01 Y =-3.120374511937471E+01 Z = 3.513439244674633E+00
 VX= 3.195713984992744E-03 VY=-6.496738046459055E-04 VZ=-8.548705312920461E-04
 LT= 1.813900517685253E-01 RG= 3.140671388422275E+01 RR= 4.884761648137769E-04
2454510.500000000 = A.D. 2008-Feb-14 00:00:00.0000 TDB 
 X =-5.711281459027641E-01 Y =-3.121022693598566E+01 Z = 3.504888860490943E+00
 VX= 3.195770282800772E-03 VY=-6.466896469197865E-04 VZ=-8.552061429578656E-04
 LT= 1.814182793530837E-01 RG= 3.141160133898240E+01 RR= 4.890146679097320E-04
2454520.500000000 = A.D. 2008-Feb-24 00:00:00.0000 TDB 
 X =-5.391701744069883E-01 Y =-3.121667891490773E+01 Z = 3.496335125064678E+00
 VX= 3.195823503776560E-03 VY=-6.437062675812752E-04 VZ=-8.555407798620760E-04
 LT= 1.814465380183328E-01 RG= 3.141649417519682E+01 RR= 4.895524557695123E-04
2454530.500000000 = A.D. 2008-Mar-05 00:00:00.0000 TDB 
 X =-5.072116860742376E-01 Y =-3.122310106394614E+01 Z = 3.487778048141789E+00
 VX= 3.195873650650949E-03 VY=-6.407236708996211E-04 VZ=-8.558744423394584E-04
 LT= 1.814748277229641E-01 RG= 3.142139238571366E+01 RR= 4.900895283933683E-04
2454540.500000000 = A.D. 2008-Mar-15 00:00:00.0000 TDB 
 X =-4.752527116318687E-01 Y =-3.122949339094876E+01 Z = 3.479217639464852E+00
 VX= 3.195920726155538E-03 VY=-6.377418611293407E-04 VZ=-8.562071307284723E-04
 LT= 1.815031484256689E-01 RG= 3.142629596338055E+01 RR= 4.906258857774572E-04
2454550.500000000 = A.D. 2008-Mar-25 00:00:00.0000 TDB 
 X =-4.432932817799182E-01 Y =-3.123585590380591E+01 Z = 3.470653908773042E+00
 VX= 3.195964733022751E-03 VY=-6.347608425138310E-04 VZ=-8.565388453704494E-04
 LT= 1.815315000851381E-01 RG= 3.143120490104506E+01 RR= 4.911615279174910E-04
2454560.500000000 = A.D. 2008-Apr-04 00:00:00.0000 TDB 
 X =-4.113334271910923E-01 Y =-3.124218861045032E+01 Z = 3.462086865802118E+00
 VX= 3.196005673986416E-03 VY=-6.317806192837576E-04 VZ=-8.568695866098366E-04
 LT= 1.815598826600627E-01 RG= 3.143611919155474E+01 RR= 4.916964548070728E-04
2454570.500000000 = A.D. 2008-Apr-14 00:00:00.0000 TDB 
 X =-3.793731785107489E-01 Y =-3.124849151885693E+01 Z = 3.453516520284358E+00
 VX= 3.196043551782483E-03 VY=-6.288011956555572E-04 VZ=-8.571993547956036E-04
 LT= 1.815882961091330E-01 RG= 3.144103882775701E+01 RR= 4.922306664360183E-04
